[{"OBJECT_NAME":"TRANSPORTER-10 OBJECT AG","OBJECT_ID":"2024-043AG","EPOCH":"2026-03-09T22:12:45.387648","MEAN_MOTION":15.30759727,"ECCENTRICITY":0.00093005,"INCLINATION":97.5471,"RA_OF_ASC_NODE":205.7101,"ARG_OF_PERICENTER":226.5958,"MEAN_ANOMALY":133.4509,"EPHEMERIS_TYPE":0,"CLASSIFICATION_TYPE":"U","NORAD_CAT_ID":59128,"ELEMENT_SET_NO":999,"REV_AT_EPOCH":11192,"BSTAR":0.00032170115,"MEAN_MOTION_DOT":9.498e-5,"MEAN_MOTION_DDOT":0},{"OBJECT_NAME":"STARLINK-35573","OBJECT_ID":"2025-237C","EPOCH":"2026-03-09T07:16:17.175648","MEAN_MOTION":15.30196329,"ECCENTRICITY":0.00013646,"INCLINATION":53.1607,"RA_OF_ASC_NODE":41.2626,"ARG_OF_PERICENTER":85.8081,"MEAN_ANOMALY":274.3075,"EPHEMERIS_TYPE":0,"CLASSIFICATION_TYPE":"U","NORAD_CAT_ID":66116,"ELEMENT_SET_NO":999,"REV_AT_EPOCH":2255,"BSTAR":0.0009216063,"MEAN_MOTION_DOT":0.00027032,"MEAN_MOTION_DDOT":0}]
